ONEWEB-0704             
1 61609U 24188R   25296.43754426 -.00000661  00000+0 -19297-2 0  9998
2 61609  87.8785  83.4137 0002559  90.8387 269.3033 13.10372437 52283
ONEWEB-0705             
1 61610U 24188S   25296.44252924 -.00000686  00000+0 -20025-2 0  9995
2 61610  87.8772  83.4411 0002455  69.4177 290.7213 13.10374473 44450
ONEWEB-0706             
1 61611U 24188T   25296.65665848 -.00000157  00000+0 -48605-3 0  9990
2 61611  87.8761  83.4232 0002211  86.1957 273.9423 13.10369805 52405
ONEWEB-0707             
1 61612U 24188U   25296.66329367 -.00000530  00000+0 -15542-2 0  9993
2 61612  87.8777  83.3925 0002179  89.2863 270.8514 13.10370372 52345
ONEWEB-0708             
1 61613U 24188V   25296.45249152 -.00000311  00000+0 -92840-3 0  9998
2 61613  87.8771  83.4762 0001569  74.3892 285.7408 13.10368131 52290
