[{"OBJECT_NAME":"ONEWEB-0704","OBJECT_ID":"2024-188R","EPOCH":"2025-10-23T10:30:03.824064","MEAN_MOTION":13.10372437,"ECCENTRICITY":0.0002559,"INCLINATION":87.8785,"RA_OF_ASC_NODE":83.4137,"ARG_OF_PERICENTER":90.8387,"MEAN_ANOMALY":269.3033,"EPHEMERIS_TYPE":0,"CLASSIFICATION_TYPE":"U","NORAD_CAT_ID":61609,"ELEMENT_SET_NO":999,"REV_AT_EPOCH":5228,"BSTAR":-0.0019297,"MEAN_MOTION_DOT":-6.61e-6,"MEAN_MOTION_DDOT":0},{"OBJECT_NAME":"ONEWEB-0705","OBJECT_ID":"2024-188S","EPOCH":"2025-10-23T10:37:14.526336","MEAN_MOTION":13.10374473,"ECCENTRICITY":0.0002455,"INCLINATION":87.8772,"RA_OF_ASC_NODE":83.4411,"ARG_OF_PERICENTER":69.4177,"MEAN_ANOMALY":290.7213,"EPHEMERIS_TYPE":0,"CLASSIFICATION_TYPE":"U","NORAD_CAT_ID":61610,"ELEMENT_SET_NO":999,"REV_AT_EPOCH":4445,"BSTAR":-0.0020025,"MEAN_MOTION_DOT":-6.86e-6,"MEAN_MOTION_DDOT":0},{"OBJECT_NAME":"ONEWEB-0706","OBJECT_ID":"2024-188T","EPOCH":"2025-10-23T15:45:35.292672","MEAN_MOTION":13.10369805,"ECCENTRICITY":0.0002211,"INCLINATION":87.8761,"RA_OF_ASC_NODE":83.4232,"ARG_OF_PERICENTER":86.1957,"MEAN_ANOMALY":273.9423,"EPHEMERIS_TYPE":0,"CLASSIFICATION_TYPE":"U","NORAD_CAT_ID":61611,"ELEMENT_SET_NO":999,"REV_AT_EPOCH":5240,"BSTAR":-0.00048605,"MEAN_MOTION_DOT":-1.57e-6,"MEAN_MOTION_DDOT":0},{"OBJECT_NAME":"ONEWEB-0707","OBJECT_ID":"2024-188U","EPOCH":"2025-10-23T15:55:08.573088","MEAN_MOTION":13.10370372,"ECCENTRICITY":0.0002179,"INCLINATION":87.8777,"RA_OF_ASC_NODE":83.3925,"ARG_OF_PERICENTER":89.2863,"MEAN_ANOMALY":270.8514,"EPHEMERIS_TYPE":0,"CLASSIFICATION_TYPE":"U","NORAD_CAT_ID":61612,"ELEMENT_SET_NO":999,"REV_AT_EPOCH":5234,"BSTAR":-0.0015542,"MEAN_MOTION_DOT":-5.3e-6,"MEAN_MOTION_DDOT":0},{"OBJECT_NAME":"ONEWEB-0708","OBJECT_ID":"2024-188V","EPOCH":"2025-10-23T10:51:35.267328","MEAN_MOTION":13.10368131,"ECCENTRICITY":0.0001569,"INCLINATION":87.8771,"RA_OF_ASC_NODE":83.4762,"ARG_OF_PERICENTER":74.3892,"MEAN_ANOMALY":285.7408,"EPHEMERIS_TYPE":0,"CLASSIFICATION_TYPE":"U","NORAD_CAT_ID":61613,"ELEMENT_SET_NO":999,"REV_AT_EPOCH":5229,"BSTAR":-0.0009284,"MEAN_MOTION_DOT":-3.11e-6,"MEAN_MOTION_DDOT":0}]
